STARLINK-31137          
1 58686U 23211V   26068.10282520 -.00001120  00000+0 -31195-4 0  9992
2 58686  43.0029  88.6918 0000763 265.5034  94.5730 15.27567968122373
2025-313BE              
1 67482U 25313BE  26068.69721505  .00077178  00000+0  26504-2 0  9996
2 67482  97.3989 145.3568 0007208 335.3714  24.7181 15.29801687  7972
